start=new Date('2022-12-28T00:00:00.000Z').valueOf();
sats=[{"ELEMENT_SET_NO":"999","EPOCH":"2022-12-27T17:54:54.776448","TLE_LINE2":"2 49138  69.9979 359.2624 0003076 262.2473  97.8337 14.98344129 71032","SITE":"AFWTR","OBJECT_ID":"2021-082J","RA_OF_ASC_NODE":"359.2624","MEAN_MOTION_DOT":"0.00001627","MEAN_MOTION_DDOT":"0.0000000000000","SEMIMAJOR_AXIS":"6950.149","OBJECT_NAME":"STARLINK-3058","MEAN_ELEMENT_THEORY":"SGP4","FILE":"3724149","DECAY_DATE":null,"ARG_OF_PERICENTER":"262.2473","CLASSIFICATION_TYPE":"U","NORAD_CAT_ID":"49138","LAUNCH_DATE":"2021-09-14","BSTAR":"0.00014403000000","INCLINATION":"69.9979","REF_FRAME":"TEME","EPHEMERIS_TYPE":"0","MEAN_ANOMALY":"97.8337","MEAN_MOTION":"14.98344129","REV_AT_EPOCH":"7103","CENTER_NAME":"EARTH","PERIAPSIS":"569.876","COUNTRY_CODE":"US","TLE_LINE1":"1 49138U 21082J   22361.74646732  .00001627  00000-0  14403-3 0  9992","GP_ID":"221620968","TIME_SYSTEM":"UTC","OBJECT_TYPE":"PAYLOAD","APOAPSIS":"574.152","ECCENTRICITY":"0.00030760","PERIOD":"96.106","RCS_SIZE":"LARGE"},{"CLASSIFICATION_TYPE":"U","ARG_OF_PERICENTER":"273.5855","DECAY_DATE":null,"FILE":"3724234","MEAN_ELEMENT_THEORY":"SGP4","NORAD_CAT_ID":"49139","INCLINATION":"69.9998","BSTAR":"0.00017912000000","LAUNCH_DATE":"2021-09-14","EPOCH":"2022-12-27T20:22:56.312832","TLE_LINE2":"2 49139  69.9998 319.0025 0003113 273.5855  86.4948 14.98335020 72037","SITE":"AFWTR","ELEMENT_SET_NO":"999","RA_OF_ASC_NODE":"319.0025","OBJECT_ID":"2021-082K","MEAN_MOTION_DDOT":"0.0000000000000","MEAN_MOTION_DOT":"0.00002045","OBJECT_NAME":"STARLINK-3057","SEMIMAJOR_AXIS":"6950.177","APOAPSIS":"574.206","ECCENTRICITY":"0.00031130","RCS_SIZE":"LARGE","PERIOD":"96.107","MEAN_ANOMALY":"86.4948","EPHEMERIS_TYPE":"0","REF_FRAME":"TEME","CENTER_NAME":"EARTH","MEAN_MOTION":"14.98335020","REV_AT_EPOCH":"7203","PERIAPSIS":"569.879","COUNTRY_CODE":"US","GP_ID":"221627920","OBJECT_TYPE":"PAYLOAD","TIME_SYSTEM":"UTC","TLE_LINE1":"1 49139U 21082K   22361.84926288  .00002045  00000-0  17912-3 0  9994"},{"APOAPSIS":"574.365","RCS_SIZE":"LARGE","PERIOD":"96.106","ECCENTRICITY":"0.00033930","CENTER_NAME":"EARTH","MEAN_MOTION":"14.98346614","REV_AT_EPOCH":"7195","EPHEMERIS_TYPE":"0","MEAN_ANOMALY":"84.0847","REF_FRAME":"TEME","OBJECT_TYPE":"PAYLOAD","GP_ID":"221563714","TIME_SYSTEM":"UTC","TLE_LINE1":"1 49140U 21082L   22361.30564590  .00004064  00000-0  34805-3 0  9994","COUNTRY_CODE":"US","PERIAPSIS":"569.648","NORAD_CAT_ID":"49140","ARG_OF_PERICENTER":"275.9925","CLASSIFICATION_TYPE":"U","FILE":"3723863","DECAY_DATE":null,"MEAN_ELEMENT_THEORY":"SGP4","BSTAR":"0.00034805000000","INCLINATION":"70.0023","LAUNCH_DATE":"2021-09-14","RA_OF_ASC_NODE":"320.3682","OBJECT_ID":"2021-082L","ELEMENT_SET_NO":"999","TLE_LINE2":"2 49140  70.0023 320.3682 0003393 275.9925  84.0847 14.98346614 71952","SITE":"AFWTR","EPOCH":"2022-12-27T07:20:07.805760","OBJECT_NAME":"STARLINK-3118","SEMIMAJOR_AXIS":"6950.142","MEAN_MOTION_DOT":"0.00004064","MEAN_MOTION_DDOT":"0.0000000000000"},{"APOAPSIS":"573.923","PERIOD":"96.107","RCS_SIZE":"LARGE","ECCENTRICITY":"0.00027140","REV_AT_EPOCH":"7227","MEAN_MOTION":"14.98336976","CENTER_NAME":"EARTH","REF_FRAME":"TEME","EPHEMERIS_TYPE":"0","MEAN_ANOMALY":"92.4033","TLE_LINE1":"1 49141U 21082M   22362.00874649  .00001998  00000-0  17516-3 0  9995","GP_ID":"221628191","TIME_SYSTEM":"UTC","OBJECT_TYPE":"PAYLOAD","PERIAPSIS":"570.150","COUNTRY_CODE":"US","NORAD_CAT_ID":"49141","MEAN_ELEMENT_THEORY":"SGP4","FILE":"3724234","DECAY_DATE":null,"ARG_OF_PERICENTER":"267.6815","CLASSIFICATION_TYPE":"U","LAUNCH_DATE":"2021-09-14","BSTAR":"0.00017516000000","INCLINATION":"70.0028","OBJECT_ID":"2021-082M","RA_OF_ASC_NODE":"358.5897","ELEMENT_SET_NO":"999","SITE":"AFWTR","TLE_LINE2":"2 49141  70.0028 358.5897 0002714 267.6815  92.4033 14.98336976 72277","EPOCH":"2022-12-28T00:12:35.696736","OBJECT_NAME":"STARLINK-3093","SEMIMAJOR_AXIS":"6950.171","MEAN_MOTION_DOT":"0.00001998","MEAN_MOTION_DDOT":"0.0000000000000"},{"RCS_SIZE":"LARGE","PERIOD":"96.106","ECCENTRICITY":"0.00031450","APOAPSIS":"574.199","OBJECT_TYPE":"PAYLOAD","GP_ID":"221564716","TIME_SYSTEM":"UTC","TLE_LINE1":"1 49142U 21082N   22361.30087107  .00003379  00000-0  29077-3 0  9993","COUNTRY_CODE":"US","PERIAPSIS":"569.828","CENTER_NAME":"EARTH","MEAN_MOTION":"14.98344383","REV_AT_EPOCH":"7195","MEAN_ANOMALY":"83.1490","EPHEMERIS_TYPE":"0","REF_FRAME":"TEME","BSTAR":"0.00029077000000","INCLINATION":"70.0000","LAUNCH_DATE":"2021-09-14","NORAD_CAT_ID":"49142","CLASSIFICATION_TYPE":"U","ARG_OF_PERICENTER":"276.9312","FILE":"3723863","MEAN_ELEMENT_THEORY":"SGP4","DECAY_DATE":null,"SEMIMAJOR_AXIS":"6950.148","OBJECT_NAME":"STARLINK-3042","MEAN_MOTION_DDOT":"0.0000000000000","MEAN_MOTION_DOT":"0.00003379","RA_OF_ASC_NODE":"320.3791","OBJECT_ID":"2021-082N","EPOCH":"2022-12-27T07:13:15.260448","TLE_LINE2":"2 49142  70.0000 320.3791 0003145 276.9312  83.1490 14.98344383 71951","SITE":"AFWTR","ELEMENT_SET_NO":"999"},{"RCS_SIZE":"LARGE","PERIOD":"96.107","ECCENTRICITY":"0.00035720","APOAPSIS":"574.560","GP_ID":"221563464","TIME_SYSTEM":"UTC","OBJECT_TYPE":"PAYLOAD","TLE_LINE1":"1 49143U 21082P   22361.24234988 -.00002774  00000-0 -22484-3 0  9993","PERIAPSIS":"569.594","COUNTRY_CODE":"US","CENTER_NAME":"EARTH","REV_AT_EPOCH":"7256","MEAN_MOTION":"14.98323823","EPHEMERIS_TYPE":"0","MEAN_ANOMALY":"100.6501","REF_FRAME":"TEME","INCLINATION":"69.9980","BSTAR":"-0.00022484000000","LAUNCH_DATE":"2021-09-14","NORAD_CAT_ID":"49143","ARG_OF_PERICENTER":"259.4256","CLASSIFICATION_TYPE":"U","FILE":"3723863","MEAN_ELEMENT_THEORY":"SGP4","DECAY_DATE":null,"SEMIMAJOR_AXIS":"6950.212","OBJECT_NAME":"STARLINK-3109","MEAN_MOTION_DOT":"-0.00002774","MEAN_MOTION_DDOT":"0.0000000000000","RA_OF_ASC_NODE":"340.5072","OBJECT_ID":"2021-082P","ELEMENT_SET_NO":"999","SITE":"AFWTR","TLE_LINE2":"2 49143  69.9980 340.5072 0003572 259.4256 100.6501 14.98323823 72561","EPOCH":"2022-12-27T05:48:59.029632"},{"MEAN_MOTION_DOT":"0.00001547","MEAN_MOTION_DDOT":"0.0000000000000","OBJECT_NAME":"STARLINK-3100","SEMIMAJOR_AXIS":"6950.163","ELEMENT_SET_NO":"999","EPOCH":"2022-12-28T00:05:43.306080","TLE_LINE2":"2 49144  70.0002 358.6090 0002963 267.5873  92.4947 14.98339571 71072","SITE":"AFWTR","RA_OF_ASC_NODE":"358.6090","OBJECT_ID":"2021-082Q","INCLINATION":"70.0002","BSTAR":"0.00013742000000","LAUNCH_DATE":"2021-09-14","ARG_OF_PERICENTER":"267.5873","CLASSIFICATION_TYPE":"U","FILE":"3724234","MEAN_ELEMENT_THEORY":"SGP4","DECAY_DATE":null,"NORAD_CAT_ID":"49144","COUNTRY_CODE":"US","PERIAPSIS":"569.969","TIME_SYSTEM":"UTC","GP_ID":"221627917","OBJECT_TYPE":"PAYLOAD","TLE_LINE1":"1 49144U 21082Q   22362.00397345  .00001547  00000-0  13742-3 0  9998","EPHEMERIS_TYPE":"0","MEAN_ANOMALY":"92.4947","REF_FRAME":"TEME","CENTER_NAME":"EARTH","MEAN_MOTION":"14.98339571","REV_AT_EPOCH":"7107","ECCENTRICITY":"0.00029630","RCS_SIZE":"LARGE","PERIOD":"96.106","APOAPSIS":"574.088"},{"APOAPSIS":"574.153","RCS_SIZE":"LARGE","PERIOD":"96.106","ECCENTRICITY":"0.00030900","CENTER_NAME":"EARTH","REV_AT_EPOCH":"7195","MEAN_MOTION":"14.98347085","EPHEMERIS_TYPE":"0","MEAN_ANOMALY":"83.7768","REF_FRAME":"TEME","GP_ID":"221564466","TIME_SYSTEM":"UTC","OBJECT_TYPE":"PAYLOAD","TLE_LINE1":"1 49145U 21082R   22361.35332137 -.00000085  00000-0  68988-6 0  9996","PERIAPSIS":"569.857","COUNTRY_CODE":"US","NORAD_CAT_ID":"49145","ARG_OF_PERICENTER":"276.3039","CLASSIFICATION_TYPE":"U","FILE":"3723863","DECAY_DATE":null,"MEAN_ELEMENT_THEORY":"SGP4","INCLINATION":"70.0016","BSTAR":"0.00000068988000","LAUNCH_DATE":"2021-09-14","RA_OF_ASC_NODE":"320.2528","OBJECT_ID":"2021-082R","ELEMENT_SET_NO":"999","SITE":"AFWTR","TLE_LINE2":"2 49145  70.0016 320.2528 0003090 276.3039  83.7768 14.98347085 71953","EPOCH":"2022-12-27T08:28:46.966368","SEMIMAJOR_AXIS":"6950.140","OBJECT_NAME":"STARLINK-3119","MEAN_MOTION_DOT":"-0.00000085","MEAN_MOTION_DDOT":"0.0000000000000"},{"ELEMENT_SET_NO":"999","EPOCH":"2022-12-27T10:30:30.449952","TLE_LINE2":"2 49146  70.0024 340.0392 0003144 276.1704  83.9097 14.98317314 72645","SITE":"AFWTR","OBJECT_ID":"2021-082S","RA_OF_ASC_NODE":"340.0392","MEAN_MOTION_DOT":"-0.00003208","MEAN_MOTION_DDOT":"0.0000000000000","SEMIMAJOR_AXIS":"6950.232","OBJECT_NAME":"STARLINK-3116","FILE":"3724051","DECAY_DATE":null,"MEAN_ELEMENT_THEORY":"SGP4","ARG_OF_PERICENTER":"276.1704","CLASSIFICATION_TYPE":"U","NORAD_CAT_ID":"49146","LAUNCH_DATE":"2021-09-14","BSTAR":"-0.00026125000000","INCLINATION":"70.0024","REF_FRAME":"TEME","EPHEMERIS_TYPE":"0","MEAN_ANOMALY":"83.9097","MEAN_MOTION":"14.98317314","REV_AT_EPOCH":"7264","CENTER_NAME":"EARTH","PERIAPSIS":"569.912","COUNTRY_CODE":"US","TLE_LINE1":"1 49146U 21082S   22361.43785243 -.00003208  00000-0 -26125-3 0  9991","GP_ID":"221597206","OBJECT_TYPE":"PAYLOAD","TIME_SYSTEM":"UTC","APOAPSIS":"574.282","ECCENTRICITY":"0.00031440","PERIOD":"96.108","RCS_SIZE":"LARGE"},{"APOAPSIS":"573.930","ECCENTRICITY":"0.00023420","PERIOD":"96.112","RCS_SIZE":"LARGE","REF_FRAME":"TEME","MEAN_ANOMALY":"93.3925","EPHEMERIS_TYPE":"0","REV_AT_EPOCH":"7196","MEAN_MOTION":"14.98251148","CENTER_NAME":"EARTH","COUNTRY_CODE":"US","PERIAPSIS":"570.674","TLE_LINE1":"1 49147U 21082T   22361.36289164  .00016793  00000-0  14147-2 0  9996","GP_ID":"221562965","TIME_SYSTEM":"UTC","OBJECT_TYPE":"PAYLOAD","FILE":"3723863","DECAY_DATE":null,"MEAN_ELEMENT_THEORY":"SGP4","CLASSIFICATION_TYPE":"U","ARG_OF_PERICENTER":"266.6966","NORAD_CAT_ID":"49147","LAUNCH_DATE":"2021-09-14","INCLINATION":"69.9990","BSTAR":"0.00141470000000","TLE_LINE2":"2 49147  69.9990 320.2292 0002342 266.6966  93.3925 14.98251148 71968","EPOCH":"2022-12-27T08:42:33.837696","SITE":"AFWTR","ELEMENT_SET_NO":"999","OBJECT_ID":"2021-082T","RA_OF_ASC_NODE":"320.2292","MEAN_MOTION_DDOT":"0.0000000000000","MEAN_MOTION_DOT":"0.00016793","OBJECT_NAME":"STARLINK-3071","SEMIMAJOR_AXIS":"6950.437"}];
